[{"OBJECT_NAME":"ONEWEB-0660","OBJECT_ID":"2023-029AA","EPOCH":"2026-03-12T03:39:44.278848","MEAN_MOTION":13.14504133,"ECCENTRICITY":0.00014986,"INCLINATION":87.8989,"RA_OF_ASC_NODE":309.058,"ARG_OF_PERICENTER":96.2115,"MEAN_ANOMALY":263.9186,"EPHEMERIS_TYPE":0,"CLASSIFICATION_TYPE":"U","NORAD_CAT_ID":55820,"ELEMENT_SET_NO":999,"REV_AT_EPOCH":14665,"BSTAR":-0.00035710227,"MEAN_MOTION_DOT":-1.2e-6,"MEAN_MOTION_DDOT":0},{"OBJECT_NAME":"ONEWEB-0661","OBJECT_ID":"2023-029AB","EPOCH":"2026-03-12T04:29:58.574400","MEAN_MOTION":13.14503511,"ECCENTRICITY":0.00014218,"INCLINATION":87.8973,"RA_OF_ASC_NODE":309.1078,"ARG_OF_PERICENTER":91.3475,"MEAN_ANOMALY":268.7818,"EPHEMERIS_TYPE":0,"CLASSIFICATION_TYPE":"U","NORAD_CAT_ID":55821,"ELEMENT_SET_NO":999,"REV_AT_EPOCH":14664,"BSTAR":0.00047654534,"MEAN_MOTION_DOT":1.89e-6,"MEAN_MOTION_DDOT":0},{"OBJECT_NAME":"ONEWEB-0662","OBJECT_ID":"2023-029AC","EPOCH":"2026-03-12T03:30:35.324352","MEAN_MOTION":13.14509252,"ECCENTRICITY":0.00014872,"INCLINATION":87.897,"RA_OF_ASC_NODE":309.1227,"ARG_OF_PERICENTER":93.2948,"MEAN_ANOMALY":266.8352,"EPHEMERIS_TYPE":0,"CLASSIFICATION_TYPE":"U","NORAD_CAT_ID":55822,"ELEMENT_SET_NO":999,"REV_AT_EPOCH":14668,"BSTAR":-0.0033078113,"MEAN_MOTION_DOT":-1.214e-5,"MEAN_MOTION_DDOT":0},{"OBJECT_NAME":"ONEWEB-0663","OBJECT_ID":"2023-029AD","EPOCH":"2026-03-12T01:10:33.693312","MEAN_MOTION":13.20964355,"ECCENTRICITY":0.0005475,"INCLINATION":87.917,"RA_OF_ASC_NODE":293.8979,"ARG_OF_PERICENTER":51.1371,"MEAN_ANOMALY":309.0251,"EPHEMERIS_TYPE":0,"CLASSIFICATION_TYPE":"U","NORAD_CAT_ID":55823,"ELEMENT_SET_NO":999,"REV_AT_EPOCH":14832,"BSTAR":0.036211841,"MEAN_MOTION_DOT":0.00014804,"MEAN_MOTION_DDOT":0},{"OBJECT_NAME":"ONEWEB-0664","OBJECT_ID":"2023-029AE","EPOCH":"2026-03-12T03:31:40.867392","MEAN_MOTION":13.20769857,"ECCENTRICITY":0.00011857,"INCLINATION":87.916,"RA_OF_ASC_NODE":293.8696,"ARG_OF_PERICENTER":94.7116,"MEAN_ANOMALY":265.4153,"EPHEMERIS_TYPE":0,"CLASSIFICATION_TYPE":"U","NORAD_CAT_ID":55824,"ELEMENT_SET_NO":999,"REV_AT_EPOCH":14833,"BSTAR":-0.00013791383,"MEAN_MOTION_DOT":-4.3e-7,"MEAN_MOTION_DDOT":0},{"OBJECT_NAME":"ONEWEB-0665","OBJECT_ID":"2023-029AF","EPOCH":"2026-03-12T04:25:25.159008","MEAN_MOTION":13.14502743,"ECCENTRICITY":0.00016505,"INCLINATION":87.8975,"RA_OF_ASC_NODE":309.0886,"ARG_OF_PERICENTER":95.5554,"MEAN_ANOMALY":264.5764,"EPHEMERIS_TYPE":0,"CLASSIFICATION_TYPE":"U","NORAD_CAT_ID":55825,"ELEMENT_SET_NO":999,"REV_AT_EPOCH":14666,"BSTAR":0.00058811073,"MEAN_MOTION_DOT":2.31e-6,"MEAN_MOTION_DDOT":0},{"OBJECT_NAME":"ONEWEB-0666","OBJECT_ID":"2023-029AG","EPOCH":"2026-03-12T03:22:36.333984","MEAN_MOTION":13.20770812,"ECCENTRICITY":0.00019456,"INCLINATION":87.9156,"RA_OF_ASC_NODE":293.8609,"ARG_OF_PERICENTER":66.7918,"MEAN_ANOMALY":293.342,"EPHEMERIS_TYPE":0,"CLASSIFICATION_TYPE":"U","NORAD_CAT_ID":55826,"ELEMENT_SET_NO":999,"REV_AT_EPOCH":14834,"BSTAR":-0.00024310918,"MEAN_MOTION_DOT":-8.6e-7,"MEAN_MOTION_DDOT":0},{"OBJECT_NAME":"ONEWEB-0667","OBJECT_ID":"2023-029AH","EPOCH":"2026-03-12T03:13:31.311552","MEAN_MOTION":13.20770485,"ECCENTRICITY":0.00015199,"INCLINATION":87.9172,"RA_OF_ASC_NODE":293.8031,"ARG_OF_PERICENTER":89.7129,"MEAN_ANOMALY":270.4179,"EPHEMERIS_TYPE":0,"CLASSIFICATION_TYPE":"U","NORAD_CAT_ID":55827,"ELEMENT_SET_NO":999,"REV_AT_EPOCH":14833,"BSTAR":6.4349763e-5,"MEAN_MOTION_DOT":3.9e-7,"MEAN_MOTION_DDOT":0},{"OBJECT_NAME":"ONEWEB-0669","OBJECT_ID":"2023-029AJ","EPOCH":"2026-03-12T03:06:42.093504","MEAN_MOTION":13.20770895,"ECCENTRICITY":0.00011461,"INCLINATION":87.9157,"RA_OF_ASC_NODE":293.8285,"ARG_OF_PERICENTER":69.3098,"MEAN_ANOMALY":290.8158,"EPHEMERIS_TYPE":0,"CLASSIFICATION_TYPE":"U","NORAD_CAT_ID":55828,"ELEMENT_SET_NO":999,"REV_AT_EPOCH":14833,"BSTAR":5.635056e-5,"MEAN_MOTION_DOT":3.6e-7,"MEAN_MOTION_DDOT":0},{"OBJECT_NAME":"ONEWEB-0670","OBJECT_ID":"2023-029AK","EPOCH":"2026-03-12T03:53:26.381760","MEAN_MOTION":13.14503606,"ECCENTRICITY":0.00012852,"INCLINATION":87.8976,"RA_OF_ASC_NODE":309.1119,"ARG_OF_PERICENTER":91.0994,"MEAN_ANOMALY":269.0283,"EPHEMERIS_TYPE":0,"CLASSIFICATION_TYPE":"U","NORAD_CAT_ID":55829,"ELEMENT_SET_NO":999,"REV_AT_EPOCH":14668,"BSTAR":0.00019046945,"MEAN_MOTION_DOT":8.3e-7,"MEAN_MOTION_DDOT":0},{"OBJECT_NAME":"ONEWEB-0671","OBJECT_ID":"2023-029AL","EPOCH":"2026-03-12T05:53:27.543552","MEAN_MOTION":13.19724861,"ECCENTRICITY":0.00016288,"INCLINATION":87.9223,"RA_OF_ASC_NODE":324.295,"ARG_OF_PERICENTER":86.2914,"MEAN_ANOMALY":273.8405,"EPHEMERIS_TYPE":0,"CLASSIFICATION_TYPE":"U","NORAD_CAT_ID":55830,"ELEMENT_SET_NO":999,"REV_AT_EPOCH":14611,"BSTAR":0.00013087359,"MEAN_MOTION_DOT":6.5e-7,"MEAN_MOTION_DDOT":0},{"OBJECT_NAME":"ONEWEB-0672","OBJECT_ID":"2023-029AM","EPOCH":"2026-03-12T02:59:54.516192","MEAN_MOTION":13.20752529,"ECCENTRICITY":0.00024801,"INCLINATION":87.9184,"RA_OF_ASC_NODE":293.815,"ARG_OF_PERICENTER":62.7007,"MEAN_ANOMALY":297.4378,"EPHEMERIS_TYPE":0,"CLASSIFICATION_TYPE":"U","NORAD_CAT_ID":55831,"ELEMENT_SET_NO":999,"REV_AT_EPOCH":14833,"BSTAR":0.0035991621,"MEAN_MOTION_DOT":1.476e-5,"MEAN_MOTION_DDOT":0},{"OBJECT_NAME":"ONEWEB-0673","OBJECT_ID":"2023-029AN","EPOCH":"2026-03-12T05:20:27.745440","MEAN_MOTION":13.19724265,"ECCENTRICITY":0.00016258,"INCLINATION":87.9228,"RA_OF_ASC_NODE":324.2846,"ARG_OF_PERICENTER":83.3786,"MEAN_ANOMALY":276.7532,"EPHEMERIS_TYPE":0,"CLASSIFICATION_TYPE":"U","NORAD_CAT_ID":55832,"ELEMENT_SET_NO":999,"REV_AT_EPOCH":14611,"BSTAR":2.0867446e-5,"MEAN_MOTION_DOT":2.1e-7,"MEAN_MOTION_DDOT":0},{"OBJECT_NAME":"ONEWEB-0674","OBJECT_ID":"2023-029AP","EPOCH":"2026-03-12T04:57:22.598784","MEAN_MOTION":13.14502369,"ECCENTRICITY":0.00012269,"INCLINATION":87.8974,"RA_OF_ASC_NODE":309.0803,"ARG_OF_PERICENTER":92.9539,"MEAN_ANOMALY":267.1731,"EPHEMERIS_TYPE":0,"CLASSIFICATION_TYPE":"U","NORAD_CAT_ID":55833,"ELEMENT_SET_NO":999,"REV_AT_EPOCH":14667,"BSTAR":-0.00010704638,"MEAN_MOTION_DOT":-2.7e-7,"MEAN_MOTION_DDOT":0},{"OBJECT_NAME":"ONEWEB-0675","OBJECT_ID":"2023-029AQ","EPOCH":"2026-03-12T05:42:05.299776","MEAN_MOTION":13.19724581,"ECCENTRICITY":0.00020022,"INCLINATION":87.922,"RA_OF_ASC_NODE":324.2976,"ARG_OF_PERICENTER":74.7016,"MEAN_ANOMALY":285.4338,"EPHEMERIS_TYPE":0,"CLASSIFICATION_TYPE":"U","NORAD_CAT_ID":55834,"ELEMENT_SET_NO":999,"REV_AT_EPOCH":14613,"BSTAR":6.645471e-6,"MEAN_MOTION_DOT":1.6e-7,"MEAN_MOTION_DDOT":0},{"OBJECT_NAME":"ONEWEB-0720","OBJECT_ID":"2023-029AR","EPOCH":"2026-03-12T05:30:43.543296","MEAN_MOTION":13.19739236,"ECCENTRICITY":0.00023764,"INCLINATION":87.9224,"RA_OF_ASC_NODE":324.2994,"ARG_OF_PERICENTER":69.3994,"MEAN_ANOMALY":290.7393,"EPHEMERIS_TYPE":0,"CLASSIFICATION_TYPE":"U","NORAD_CAT_ID":55835,"ELEMENT_SET_NO":999,"REV_AT_EPOCH":14605,"BSTAR":-0.0060903985,"MEAN_MOTION_DOT":-2.425e-5,"MEAN_MOTION_DDOT":0}]
