ONEWEB-0660             
1 55820U 23029AA  26071.15259582 -.00000120  00000+0 -35710-3 0  9992
2 55820  87.8989 309.0580 0001498  96.2115 263.9186 13.14504133146654
ONEWEB-0661             
1 55821U 23029AB  26071.18748350  .00000189  00000+0  47655-3 0  9996
2 55821  87.8973 309.1078 0001421  91.3475 268.7818 13.14503511146645
ONEWEB-0662             
1 55822U 23029AC  26071.14624218 -.00001214  00000+0 -33078-2 0  9994
2 55822  87.8970 309.1227 0001487  93.2948 266.8352 13.14509252146681
ONEWEB-0663             
1 55823U 23029AD  26071.04900108  .00014804  00000+0  36212-1 0  9998
2 55823  87.9170 293.8979 0005475  51.1371 309.0251 13.20964355148329
ONEWEB-0664             
1 55824U 23029AE  26071.14700078 -.00000043  00000+0 -13791-3 0  9995
2 55824  87.9160 293.8696 0001185  94.7116 265.4153 13.20769857148336
ONEWEB-0665             
1 55825U 23029AF  26071.18431897  .00000231  00000+0  58811-3 0  9999
2 55825  87.8975 309.0886 0001650  95.5554 264.5764 13.14502743146667
ONEWEB-0666             
1 55826U 23029AG  26071.14069831 -.00000086  00000+0 -24311-3 0  9999
2 55826  87.9156 293.8609 0001945  66.7918 293.3420 13.20770812148341
ONEWEB-0667             
1 55827U 23029AH  26071.13439018  .00000039  00000+0  64350-4 0  9991
2 55827  87.9172 293.8031 0001519  89.7129 270.4179 13.20770485148337
ONEWEB-0669             
1 55828U 23029AJ  26071.12965386  .00000036  00000+0  56351-4 0  9992
2 55828  87.9157 293.8285 0001146  69.3098 290.8158 13.20770895148335
ONEWEB-0670             
1 55829U 23029AK  26071.16211090  .00000083  00000+0  19047-3 0  9995
2 55829  87.8976 309.1119 0001285  91.0994 269.0283 13.14503606146682
ONEWEB-0671             
1 55830U 23029AL  26071.24545768  .00000065  00000+0  13087-3 0  9996
2 55830  87.9223 324.2950 0001628  86.2914 273.8405 13.19724861146110
ONEWEB-0672             
1 55831U 23029AM  26071.12493653  .00001476  00000+0  35992-2 0  9994
2 55831  87.9184 293.8150 0002480  62.7007 297.4378 13.20752529148330
ONEWEB-0673             
1 55832U 23029AN  26071.22254335  .00000021  00000+0  20867-4 0  9990
2 55832  87.9228 324.2846 0001625  83.3786 276.7532 13.19724265146114
ONEWEB-0674             
1 55833U 23029AP  26071.20651156 -.00000027  00000+0 -10705-3 0  9998
2 55833  87.8974 309.0803 0001226  92.9539 267.1731 13.14502369146675
ONEWEB-0675             
1 55834U 23029AQ  26071.23756134  .00000016  00000+0  66455-5 0  9995
2 55834  87.9220 324.2976 0002002  74.7016 285.4338 13.19724581146136
ONEWEB-0720             
1 55835U 23029AR  26071.22967064 -.00002425  00000+0 -60904-2 0  9999
2 55835  87.9224 324.2994 0002376  69.3994 290.7393 13.19739236146054
